{
    "links": {
        "self": "http://www.neowsapp.com/rest/v1/neo/54054454?api_key=iIulBulltgU6a56xZRHN4H3l9WmuAYTsLGpBGhQ2"
    },
    "id": "54054454",
    "neo_reference_id": "54054454",
    "name": "(2020 SR)",
    "designation": "2020 SR",
    "nasa_jpl_url": "http://ssd.jpl.nasa.gov/sbdb.cgi?sstr=54054454",
    "absolute_magnitude_h": 24.155,
    "estimated_diameter": {
        "kilometers": {
            "estimated_diameter_min": 0.0392242797,
            "estimated_diameter_max": 0.0877081557
        },
        "meters": {
            "estimated_diameter_min": 39.2242796545,
            "estimated_diameter_max": 87.7081556759
        },
        "miles": {
            "estimated_diameter_min": 0.0243728299,
            "estimated_diameter_max": 0.0544993044
        },
        "feet": {
            "estimated_diameter_min": 128.6885856616,
            "estimated_diameter_max": 287.7564254676
        }
    },
    "is_potentially_hazardous_asteroid": false,
    "close_approach_data": [
        {
            "close_approach_date": "1960-02-27",
            "close_approach_date_full": "1960-Feb-27 17:35",
            "epoch_date_close_approach": -310631100000,
            "relative_velocity": {
                "kilometers_per_second": "8.2653415277",
                "kilometers_per_hour": "29755.2294995739",
                "miles_per_hour": "18488.7424632214"
            },
            "miss_distance": {
                "astronomical": "1.2869340244",
                "lunar": "500.6173354916",
                "kilometers": "192522588.880768028",
                "miles": "119627989.5069256664"
            },
            "orbiting_body": "Juptr"
        },
        {
            "close_approach_date": "2020-10-05",
            "close_approach_date_full": "2020-Oct-05 02:06",
            "epoch_date_close_approach": 1601863560000,
            "relative_velocity": {
                "kilometers_per_second": "18.3227928071",
                "kilometers_per_hour": "65962.0541057195",
                "miles_per_hour": "40986.2552303011"
            },
            "miss_distance": {
                "astronomical": "0.0606949413",
                "lunar": "23.6103321657",
                "kilometers": "9079833.938255031",
                "miles": "5641947.1886641878"
            },
            "orbiting_body": "Earth"
        }
    ],
    "orbital_data": {
        "orbit_id": "2",
        "orbit_determination_date": "2020-09-24 08:26:32",
        "first_observation_date": "2020-09-16",
        "last_observation_date": "2020-09-24",
        "data_arc_in_days": 8,
        "observations_used": 15,
        "orbit_uncertainty": "8",
        "minimum_orbit_intersection": ".0249691",
        "jupiter_tisserand_invariant": "2.924",
        "epoch_osculation": "2459109.5",
        "eccentricity": ".7190980001593174",
        "semi_major_axis": "2.706925601399118",
        "inclination": "2.345987353689925",
        "ascending_node_longitude": "285.3024236237413",
        "orbital_period": "1626.720374504865",
        "perihelion_distance": ".7603808148529547",
        "perihelion_argument": "154.8599333816326",
        "aphelion_distance": "4.65347038794528",
        "perihelion_time": "2459168.745810537888",
        "mean_anomaly": "346.8886551567712",
        "mean_motion": ".2213041685849514",
        "equinox": "J2000",
        "orbit_class": {
            "orbit_class_type": "APO",
            "orbit_class_description": "Near-Earth asteroid orbits which cross the Earth’s orbit similar to that of 1862 Apollo",
            "orbit_class_range": "a (semi-major axis) > 1.0 AU; q (perihelion) < 1.017 AU"
        }
    },
    "is_sentry_object": false
}